[{"OBJECT_NAME":"STARLINK-31113","OBJECT_ID":"2023-211B","EPOCH":"2026-03-09T01:43:39.497088","MEAN_MOTION":15.27578061,"ECCENTRICITY":0.00010083,"INCLINATION":43.003,"RA_OF_ASC_NODE":88.4648,"ARG_OF_PERICENTER":277.8231,"MEAN_ANOMALY":82.2506,"EPHEMERIS_TYPE":0,"CLASSIFICATION_TYPE":"U","NORAD_CAT_ID":58668,"ELEMENT_SET_NO":999,"REV_AT_EPOCH":12237,"BSTAR":-4.7464801e-5,"MEAN_MOTION_DOT":-1.568e-5,"MEAN_MOTION_DDOT":0},{"OBJECT_NAME":"FLOCK 4G-2","OBJECT_ID":"2025-009BE","EPOCH":"2026-03-09T15:53:23.273952","MEAN_MOTION":15.2767526,"ECCENTRICITY":0.00031811,"INCLINATION":97.4044,"RA_OF_ASC_NODE":151.2221,"ARG_OF_PERICENTER":329.2677,"MEAN_ANOMALY":30.8376,"EPHEMERIS_TYPE":0,"CLASSIFICATION_TYPE":"U","NORAD_CAT_ID":62661,"ELEMENT_SET_NO":999,"REV_AT_EPOCH":12132,"BSTAR":0.00051068481,"MEAN_MOTION_DOT":0.00013752,"MEAN_MOTION_DDOT":0}]
